CCSDS_OMM_VERS = 2.0
CREATION_DATE  = 
ORIGINATOR     = 

OBJECT_NAME    = IDEFIX & ARIANE 42P R/B
OBJECT_ID      = 2002-021B
CENTER_NAME    = EARTH
REF_FRAME      = TEME
TIME_SYSTEM    = UTC
MEAN_ELEMENT_THEORY = SGP/SGP4

EPOCH          = 2026-01-04T09:04:33.977856
MEAN_MOTION    = 14.30971151
ECCENTRICITY   = .0012297
INCLINATION    = 98.5809
RA_OF_ASC_NODE = 303.7782
ARG_OF_PERICENTER = 21.7467
MEAN_ANOMALY   = 338.4236

EPHEMERIS_TYPE = 0
CLASSIFICATION_TYPE = U
NORAD_CAT_ID   = 27422
ELEMENT_SET_NO = 999
REV_AT_EPOCH   = 23482
BSTAR          = .21596E-3
MEAN_MOTION_DOT = .525E-5
MEAN_MOTION_DDOT = 0

CCSDS_OMM_VERS = 2.0
CREATION_DATE  = 
ORIGINATOR     = 

OBJECT_NAME    = AQUA
OBJECT_ID      = 2002-022A
CENTER_NAME    = EARTH
REF_FRAME      = TEME
TIME_SYSTEM    = UTC
MEAN_ELEMENT_THEORY = SGP/SGP4

EPOCH          = 2026-01-03T22:31:10.390080
MEAN_MOTION    = 14.61796291
ECCENTRICITY   = .0002003
INCLINATION    = 98.4067
RA_OF_ASC_NODE = 330.1809
ARG_OF_PERICENTER = 92.1713
MEAN_ANOMALY   = 343.8415

EPHEMERIS_TYPE = 0
CLASSIFICATION_TYPE = U
NORAD_CAT_ID   = 27424
ELEMENT_SET_NO = 999
REV_AT_EPOCH   = 25927
BSTAR          = .39553E-3
MEAN_MOTION_DOT = .1925E-4
MEAN_MOTION_DDOT = 0

CCSDS_OMM_VERS = 2.0
CREATION_DATE  = 
ORIGINATOR     = 

OBJECT_NAME    = CZ-4B R/B
OBJECT_ID      = 2002-024C
CENTER_NAME    = EARTH
REF_FRAME      = TEME
TIME_SYSTEM    = UTC
MEAN_ELEMENT_THEORY = SGP/SGP4

EPOCH          = 2026-01-04T03:08:15.141984
MEAN_MOTION    = 14.14533557
ECCENTRICITY   = .00497923
INCLINATION    = 98.8963
RA_OF_ASC_NODE = 57.8207
ARG_OF_PERICENTER = 205.4469
MEAN_ANOMALY   = 173.2202

EPHEMERIS_TYPE = 0
CLASSIFICATION_TYPE = U
NORAD_CAT_ID   = 27432
ELEMENT_SET_NO = 999
REV_AT_EPOCH   = 22011
BSTAR          = .87120284E-4
MEAN_MOTION_DOT = .124E-5
MEAN_MOTION_DDOT = 0

CCSDS_OMM_VERS = 2.0
CREATION_DATE  = 
ORIGINATOR     = 

OBJECT_NAME    = MIDORI II (ADEOS-II)
OBJECT_ID      = 2002-056A
CENTER_NAME    = EARTH
REF_FRAME      = TEME
TIME_SYSTEM    = UTC
MEAN_ELEMENT_THEORY = SGP/SGP4

EPOCH          = 2026-01-04T11:14:02.522400
MEAN_MOTION    = 14.29226943
ECCENTRICITY   = .000127
INCLINATION    = 98.7665
RA_OF_ASC_NODE = 322.5473
ARG_OF_PERICENTER = 134.4894
MEAN_ANOMALY   = 225.6391

EPHEMERIS_TYPE = 0
CLASSIFICATION_TYPE = U
NORAD_CAT_ID   = 27597
ELEMENT_SET_NO = 999
REV_AT_EPOCH   = 20112
BSTAR          = .2359E-3
MEAN_MOTION_DOT = .554E-5
MEAN_MOTION_DDOT = 0

CCSDS_OMM_VERS = 2.0
CREATION_DATE  = 
ORIGINATOR     = 

OBJECT_NAME    = H-2A R/B
OBJECT_ID      = 2002-056E
CENTER_NAME    = EARTH
REF_FRAME      = TEME
TIME_SYSTEM    = UTC
MEAN_ELEMENT_THEORY = SGP/SGP4

EPOCH          = 2026-01-04T12:16:30.495648
MEAN_MOTION    = 14.33702150
ECCENTRICITY   = .0070276
INCLINATION    = 98.3094
RA_OF_ASC_NODE = 327.3656
ARG_OF_PERICENTER = 353.8189
MEAN_ANOMALY   = 115.2983

EPHEMERIS_TYPE = 0
CLASSIFICATION_TYPE = U
NORAD_CAT_ID   = 27601
ELEMENT_SET_NO = 999
REV_AT_EPOCH   = 20491
BSTAR          = .2514E-3
MEAN_MOTION_DOT = .675E-5
MEAN_MOTION_DDOT = 0

CCSDS_OMM_VERS = 2.0
CREATION_DATE  = 
ORIGINATOR     = 

OBJECT_NAME    = CZ-4B R/B
OBJECT_ID      = 2003-049C
CENTER_NAME    = EARTH
REF_FRAME      = TEME
TIME_SYSTEM    = UTC
MEAN_ELEMENT_THEORY = SGP/SGP4

EPOCH          = 2026-01-04T11:55:25.891680
MEAN_MOTION    = 14.54937158
ECCENTRICITY   = .0049272
INCLINATION    = 98.6803
RA_OF_ASC_NODE = 356.9225
ARG_OF_PERICENTER = 68.0612
MEAN_ANOMALY   = 292.5810

EPHEMERIS_TYPE = 0
CLASSIFICATION_TYPE = U
NORAD_CAT_ID   = 28059
ELEMENT_SET_NO = 999
REV_AT_EPOCH   = 17726
BSTAR          = .17847E-3
MEAN_MOTION_DOT = .729E-5
MEAN_MOTION_DDOT = 0

CCSDS_OMM_VERS = 2.0
CREATION_DATE  = 
ORIGINATOR     = 

OBJECT_NAME    = CZ-2C R/B
OBJECT_ID      = 2004-012C
CENTER_NAME    = EARTH
REF_FRAME      = TEME
TIME_SYSTEM    = UTC
MEAN_ELEMENT_THEORY = SGP/SGP4

EPOCH          = 2026-01-04T02:43:17.080032
MEAN_MOTION    = 15.57520758
ECCENTRICITY   = .00168204
INCLINATION    = 97.7372
RA_OF_ASC_NODE = 63.6082
ARG_OF_PERICENTER = 184.6043
MEAN_ANOMALY   = 175.5060

EPHEMERIS_TYPE = 0
CLASSIFICATION_TYPE = U
NORAD_CAT_ID   = 28222
ELEMENT_SET_NO = 999
REV_AT_EPOCH   = 19420
BSTAR          = .72931295E-3
MEAN_MOTION_DOT = .54168E-3
MEAN_MOTION_DDOT = 0

CCSDS_OMM_VERS = 2.0
CREATION_DATE  = 
ORIGINATOR     = 

OBJECT_NAME    = SL-16 R/B
OBJECT_ID      = 2004-021B
CENTER_NAME    = EARTH
REF_FRAME      = TEME
TIME_SYSTEM    = UTC
MEAN_ELEMENT_THEORY = SGP/SGP4

EPOCH          = 2026-01-04T09:23:23.322624
MEAN_MOTION    = 14.14587859
ECCENTRICITY   = .0003892
INCLINATION    = 71.0016
RA_OF_ASC_NODE = 7.4282
ARG_OF_PERICENTER = 162.3314
MEAN_ANOMALY   = 197.7944

EPHEMERIS_TYPE = 0
CLASSIFICATION_TYPE = U
NORAD_CAT_ID   = 28353
ELEMENT_SET_NO = 999
REV_AT_EPOCH   = 11374
BSTAR          = .22984E-3
MEAN_MOTION_DOT = .394E-5
MEAN_MOTION_DDOT = 0

CCSDS_OMM_VERS = 2.0
CREATION_DATE  = 
ORIGINATOR     = 

OBJECT_NAME    = CZ-4B R/B
OBJECT_ID      = 2004-035C
CENTER_NAME    = EARTH
REF_FRAME      = TEME
TIME_SYSTEM    = UTC
MEAN_ELEMENT_THEORY = SGP/SGP4

EPOCH          = 2026-01-04T08:34:42.588768
MEAN_MOTION    = 15.27819903
ECCENTRICITY   = .0032452
INCLINATION    = 97.3575
RA_OF_ASC_NODE = 39.4024
ARG_OF_PERICENTER = 194.0968
MEAN_ANOMALY   = 165.9369

EPHEMERIS_TYPE = 0
CLASSIFICATION_TYPE = U
NORAD_CAT_ID   = 28415
ELEMENT_SET_NO = 999
REV_AT_EPOCH   = 17008
BSTAR          = .39442E-3
MEAN_MOTION_DOT = .10812E-3
MEAN_MOTION_DDOT = 0

CCSDS_OMM_VERS = 2.0
CREATION_DATE  = 
ORIGINATOR     = 

OBJECT_NAME    = CZ-2C R/B
OBJECT_ID      = 2004-046B
CENTER_NAME    = EARTH
REF_FRAME      = TEME
TIME_SYSTEM    = UTC
MEAN_ELEMENT_THEORY = SGP/SGP4

EPOCH          = 2026-01-04T09:31:43.490496
MEAN_MOTION    = 14.26959177
ECCENTRICITY   = .0139255
INCLINATION    = 98.1998
RA_OF_ASC_NODE = 283.3685
ARG_OF_PERICENTER = 345.4834
MEAN_ANOMALY   = 14.2366

EPHEMERIS_TYPE = 0
CLASSIFICATION_TYPE = U
NORAD_CAT_ID   = 28480
ELEMENT_SET_NO = 999
REV_AT_EPOCH   = 9933
BSTAR          = .2014E-3
MEAN_MOTION_DOT = .501E-5
MEAN_MOTION_DDOT = 0

CCSDS_OMM_VERS = 2.0
CREATION_DATE  = 
ORIGINATOR     = 

OBJECT_NAME    = ARIANE 5 R/B
OBJECT_ID      = 2004-049H
CENTER_NAME    = EARTH
REF_FRAME      = TEME
TIME_SYSTEM    = UTC
MEAN_ELEMENT_THEORY = SGP/SGP4

EPOCH          = 2026-01-04T10:14:30.772320
MEAN_MOTION    = 14.85089972
ECCENTRICITY   = .0084037
INCLINATION    = 98.2530
RA_OF_ASC_NODE = 170.5246
ARG_OF_PERICENTER = 198.6223
MEAN_ANOMALY   = 161.1911

EPHEMERIS_TYPE = 0
CLASSIFICATION_TYPE = U
NORAD_CAT_ID   = 28499
ELEMENT_SET_NO = 999
REV_AT_EPOCH   = 13625
BSTAR          = .21717E-3
MEAN_MOTION_DOT = .1913E-4
MEAN_MOTION_DDOT = 0

CCSDS_OMM_VERS = 2.0
CREATION_DATE  = 
ORIGINATOR     = 

OBJECT_NAME    = CZ-2D R/B
OBJECT_ID      = 2005-024B
CENTER_NAME    = EARTH
REF_FRAME      = TEME
TIME_SYSTEM    = UTC
MEAN_ELEMENT_THEORY = SGP/SGP4

EPOCH          = 2026-01-04T12:26:29.736672
MEAN_MOTION    = 15.54790673
ECCENTRICITY   = .0003034
INCLINATION    = 97.3617
RA_OF_ASC_NODE = 17.5848
ARG_OF_PERICENTER = 247.1040
MEAN_ANOMALY   = 112.9894

EPHEMERIS_TYPE = 0
CLASSIFICATION_TYPE = U
NORAD_CAT_ID   = 28738
ELEMENT_SET_NO = 999
REV_AT_EPOCH   = 12979
BSTAR          = .54522E-3
MEAN_MOTION_DOT = .36289E-3
MEAN_MOTION_DDOT = 0

