IDEFIX & ARIANE 42P R/B 
1 27422U 02021B   26004.37817104  .00000525  00000+0  21596-3 0  9992
2 27422  98.5809 303.7782 0012297  21.7467 338.4236 14.30971151234826
AQUA                    
1 27424U 02022A   26003.93831470  .00001925  00000+0  39553-3 0  9995
2 27424  98.4067 330.1809 0002003  92.1713 343.8415 14.61796291259276
CZ-4B R/B               
1 27432U 02024C   26004.13073081  .00000124  00000+0  87120-4 0  9999
2 27432  98.8963  57.8207 0049792 205.4469 173.2202 14.14533557220114
MIDORI II (ADEOS-II)    
1 27597U 02056A   26004.46808475  .00000554  00000+0  23590-3 0  9992
2 27597  98.7665 322.5473 0001270 134.4894 225.6391 14.29226943201128
H-2A R/B                
1 27601U 02056E   26004.51146407  .00000675  00000+0  25140-3 0  9991
2 27601  98.3094 327.3656 0070276 353.8189 115.2983 14.33702150204913
CZ-4B R/B               
1 28059U 03049C   26004.49682745  .00000729  00000+0  17847-3 0  9994
2 28059  98.6803 356.9225 0049272  68.0612 292.5810 14.54937158177266
CZ-2C R/B               
1 28222U 04012C   26004.11339213  .00054168  00000+0  72931-3 0  9996
2 28222  97.7372  63.6082 0016820 184.6043 175.5060 15.57520758194206
SL-16 R/B               
1 28353U 04021B   26004.39124216  .00000394  00000+0  22984-3 0  9991
2 28353  71.0016   7.4282 0003892 162.3314 197.7944 14.14587859113742
CZ-4B R/B               
1 28415U 04035C   26004.35743737  .00010812  00000+0  39442-3 0  9999
2 28415  97.3575  39.4024 0032452 194.0968 165.9369 15.27819903170083
CZ-2C R/B               
1 28480U 04046B   26004.39703114  .00000501  00000+0  20140-3 0  9991
2 28480  98.1998 283.3685 0139255 345.4834  14.2366 14.26959177 99336
ARIANE 5 R/B            
1 28499U 04049H   26004.42674505  .00001913  00000+0  21717-3 0  9998
2 28499  98.2530 170.5246 0084037 198.6223 161.1911 14.85089972136259
CZ-2D R/B               
1 28738U 05024B   26004.51839973  .00036289  00000+0  54522-3 0  9994
2 28738  97.3617  17.5848 0003034 247.1040 112.9894 15.54790673129793
